HELIOS 2A               
1 28492U 04049A   25065.74906259  .00002784  00000+0  22709-3 0  9995
2 28492  98.3245  83.0166 0008426  84.6558 275.5625 15.00353732 83617
SPIRALE A               
1 33751U 09008C   25064.08118687  .00003365  00000+0  18922-2 0  9992
2 33751   2.1127  16.5047 5573454   1.0693 359.6999  4.61154745240428
SPIRALE B               
1 33752U 09008D   25065.15004276  .00005970  00000+0  14723-2 0  9999
2 33752   2.0021 292.0518 6727564 165.9490 230.9929  3.00143020153887
SAPPHIRE                
1 39088U 13009C   25065.48026072  .00000325  00000+0  12903-3 0  9995
2 39088  98.4127 251.4684 0010920 196.3071 163.7764 14.35003251629498
